*******************************************************************************
Ephemeris / WWW_USER Mon Mar 24 09:09:40 2025 Pasadena, USA      / Horizons    
*******************************************************************************
Target body name: 584778 (2017 RG16)              {source: JPL#32}
Center body name: Earth (399)                     {source: DE441}
Center-site name: Mauna Kea
*******************************************************************************
Start time      : A.D. 2018-Dec-24 03:59:00.0000 UT      
Stop  time      : A.D. 2018-Dec-24 16:43:00.0000 UT      
Step-size       : 1 minutes
*******************************************************************************
Target pole/equ : undefined
Target radii    : undefined                                                    
Center geodetic : 204.5278, 19.8260847, 4.21024   {E-lon(deg),Lat(deg),Alt(km)}
Center cylindric: 204.5278, 6006.35451, 2151.0229 {E-lon(deg),Dxy(km),Dz(km)}
Center pole/equ : ITRF93                          {East-longitude positive}
Center radii    : 6378.137, 6378.137, 6356.752 km {Equator_a, b, pole_c}       
Target primary  : Sun
Vis. interferer : MOON (R_eq= 1737.400) km        {source: DE441}
Rel. light bend : Sun                             {source: DE441}
Rel. lght bnd GM: 1.3271E+11 km^3/s^2                                          
Small-body perts: Yes                             {source: SB441-N16}
Atmos refraction: NO (AIRLESS)
RA format       : HMS
Time format     : CAL 
Calendar mode   : Mixed Julian/Gregorian
RTS-only print  : NO       
EOP file        : eop.250321.p250617                                           
EOP coverage    : DATA-BASED 1962-JAN-20 TO 2025-MAR-21. PREDICTS-> 2025-JUN-16
Units conversion: 1 au= 149597870.700 km, c= 299792.458 km/s, 1 day= 86400.0 s 
Table cut-offs 1: Elevation (-90.0deg=NO ),Airmass (>38.000=NO), Daylight (YES)
Table cut-offs 2: Solar elongation (  0.0,180.0=NO ),Local Hour Angle( 0.0=NO )
Table cut-offs 3: RA/DEC angular rate (     0.0=NO )                           
*******************************************************************************
Initial IAU76/J2000 heliocentric ecliptic osculating elements (au, days, deg.):
  EPOCH=  2458734.5 ! 2019-Sep-08.00 (TDB)         Residual RMS= .14786        
   EC= .9085798704456644   QR= 7.106644157383132   TP= 2457926.6828443832      
   OM= .547367620295521    W=  323.0265763955561   IN= 74.86683883750447       
  Equivalent ICRF heliocentric cartesian coordinates (au, au/d):
   X= 8.360714527577798E+00  Y=-2.241293784086399E-01  Z= 2.069107023705337E+00
  VX= 1.416407206608659E-03 VY=-1.132497676729848E-03 VZ= 7.848232694960624E-03
Asteroid physical parameters (km, seconds, rotational period in hours):        
   GM= n.a.                RAD= n.a.               ROTPER= n.a.                
   H= 11.32                G= .150                 B-V= n.a.                   
                           ALBEDO= n.a.            STYP= n.a.                  
*******************************************************************************
 Date__(UT)__HR:MN     R.A._________(ICRF)_________DEC
******************************************************
$$SOE
 2018-Dec-24 10:08  m  23 35 56.814008 -02 38 36.20236
 2018-Dec-24 10:09  m  23 35 56.816006 -02 38 36.03648
 2018-Dec-24 10:10  m  23 35 56.818006 -02 38 35.87061
 2018-Dec-24 10:11  m  23 35 56.820007 -02 38 35.70474
 2018-Dec-24 10:12  m  23 35 56.822010 -02 38 35.53886
 2018-Dec-24 10:13  m  23 35 56.824014 -02 38 35.37299
 2018-Dec-24 10:14  m  23 35 56.826020 -02 38 35.20711
 2018-Dec-24 10:15  m  23 35 56.828027 -02 38 35.04123
 2018-Dec-24 10:16  m  23 35 56.830036 -02 38 34.87535
 2018-Dec-24 10:17  m  23 35 56.832047 -02 38 34.70947
 2018-Dec-24 10:18  m  23 35 56.834059 -02 38 34.54359
 2018-Dec-24 10:19  m  23 35 56.836072 -02 38 34.37771
 2018-Dec-24 10:20  m  23 35 56.838087 -02 38 34.21183
 2018-Dec-24 10:21  m  23 35 56.840104 -02 38 34.04595
 2018-Dec-24 10:22  m  23 35 56.842122 -02 38 33.88007
 2018-Dec-24 10:23  m  23 35 56.844142 -02 38 33.71418
 2018-Dec-24 10:24  m  23 35 56.846163 -02 38 33.54830
 2018-Dec-24 10:25  m  23 35 56.848186 -02 38 33.38241
 2018-Dec-24 10:26  m  23 35 56.850210 -02 38 33.21653
 2018-Dec-24 10:27  m  23 35 56.852236 -02 38 33.05064
 2018-Dec-24 10:28  m  23 35 56.854263 -02 38 32.88475
 2018-Dec-24 10:29  m  23 35 56.856292 -02 38 32.71887
 2018-Dec-24 10:30  m  23 35 56.858323 -02 38 32.55298
 2018-Dec-24 10:31  m  23 35 56.860355 -02 38 32.38709
 2018-Dec-24 10:32  m  23 35 56.862388 -02 38 32.22120
 2018-Dec-24 10:33  m  23 35 56.864423 -02 38 32.05531
 2018-Dec-24 10:34  m  23 35 56.866460 -02 38 31.88941
 2018-Dec-24 10:35  m  23 35 56.868498 -02 38 31.72352
 2018-Dec-24 10:36  m  23 35 56.870538 -02 38 31.55763
 2018-Dec-24 10:37  m  23 35 56.872579 -02 38 31.39173
 2018-Dec-24 10:38  m  23 35 56.874622 -02 38 31.22584
 2018-Dec-24 10:39  m  23 35 56.876666 -02 38 31.05994
 2018-Dec-24 10:40  m  23 35 56.878711 -02 38 30.89405
 2018-Dec-24 10:41  m  23 35 56.880759 -02 38 30.72815
 2018-Dec-24 10:42  m  23 35 56.882807 -02 38 30.56225
 2018-Dec-24 10:43  m  23 35 56.884858 -02 38 30.39635
 2018-Dec-24 10:44  m  23 35 56.886910 -02 38 30.23045
 2018-Dec-24 10:45  m  23 35 56.888963 -02 38 30.06456
 2018-Dec-24 10:46  m  23 35 56.891018 -02 38 29.89865
 2018-Dec-24 10:47  m  23 35 56.893074 -02 38 29.73275
 2018-Dec-24 10:48  m  23 35 56.895132 -02 38 29.56685
 2018-Dec-24 10:49  m  23 35 56.897191 -02 38 29.40095
 2018-Dec-24 10:50  m  23 35 56.899252 -02 38 29.23505
 2018-Dec-24 10:51  m  23 35 56.901314 -02 38 29.06914
 2018-Dec-24 10:52  m  23 35 56.903378 -02 38 28.90324
 2018-Dec-24 10:53  m  23 35 56.905444 -02 38 28.73733
 2018-Dec-24 10:54  m  23 35 56.907510 -02 38 28.57143
 2018-Dec-24 10:55  m  23 35 56.909579 -02 38 28.40552
 2018-Dec-24 10:56  m  23 35 56.911649 -02 38 28.23961
 2018-Dec-24 10:57  m  23 35 56.913720 -02 38 28.07371
 2018-Dec-24 10:58  m  23 35 56.915793 -02 38 27.90780
 2018-Dec-24 10:59  m  23 35 56.917867 -02 38 27.74189
 2018-Dec-24 11:00  m  23 35 56.919943 -02 38 27.57598
 2018-Dec-24 11:01  m  23 35 56.922020 -02 38 27.41007
 2018-Dec-24 11:02  m  23 35 56.924099 -02 38 27.24416
 2018-Dec-24 11:03  m  23 35 56.926179 -02 38 27.07825
 2018-Dec-24 11:04  m  23 35 56.928261 -02 38 26.91233
 2018-Dec-24 11:05  m  23 35 56.930344 -02 38 26.74642
 2018-Dec-24 11:06  m  23 35 56.932429 -02 38 26.58051
 2018-Dec-24 11:07  m  23 35 56.934515 -02 38 26.41459
 2018-Dec-24 11:08  m  23 35 56.936603 -02 38 26.24868
 2018-Dec-24 11:09  m  23 35 56.938692 -02 38 26.08276
 2018-Dec-24 11:10  m  23 35 56.940782 -02 38 25.91685
 2018-Dec-24 11:11  m  23 35 56.942874 -02 38 25.75093
 2018-Dec-24 11:12  m  23 35 56.944968 -02 38 25.58501
 2018-Dec-24 11:13  m  23 35 56.947063 -02 38 25.41910
 2018-Dec-24 11:14  m  23 35 56.949159 -02 38 25.25318
 2018-Dec-24 11:15  m  23 35 56.951257 -02 38 25.08726
 2018-Dec-24 11:16  m  23 35 56.953357 -02 38 24.92134
 2018-Dec-24 11:17  m  23 35 56.955458 -02 38 24.75542
 2018-Dec-24 11:18  m  23 35 56.957560 -02 38 24.58950
 2018-Dec-24 11:19  m  23 35 56.959664 -02 38 24.42358
 2018-Dec-24 11:20  m  23 35 56.961769 -02 38 24.25766
 2018-Dec-24 11:21  m  23 35 56.963875 -02 38 24.09173
 2018-Dec-24 11:22  m  23 35 56.965983 -02 38 23.92581
 2018-Dec-24 11:23  m  23 35 56.968093 -02 38 23.75989
 2018-Dec-24 11:24  m  23 35 56.970204 -02 38 23.59396
 2018-Dec-24 11:25  m  23 35 56.972316 -02 38 23.42804
 2018-Dec-24 11:26  m  23 35 56.974430 -02 38 23.26211
 2018-Dec-24 11:27  m  23 35 56.976545 -02 38 23.09619
 2018-Dec-24 11:28  m  23 35 56.978662 -02 38 22.93026
 2018-Dec-24 11:29  m  23 35 56.980780 -02 38 22.76434
 2018-Dec-24 11:30  m  23 35 56.982900 -02 38 22.59841
 2018-Dec-24 11:31  m  23 35 56.985021 -02 38 22.43248
 2018-Dec-24 11:32  m  23 35 56.987143 -02 38 22.26655
 2018-Dec-24 11:33  m  23 35 56.989267 -02 38 22.10062
 2018-Dec-24 11:34  m  23 35 56.991392 -02 38 21.93470
 2018-Dec-24 11:35  m  23 35 56.993519 -02 38 21.76877
 2018-Dec-24 11:36  m  23 35 56.995647 -02 38 21.60284
 2018-Dec-24 11:37  m  23 35 56.997776 -02 38 21.43691
 2018-Dec-24 11:38  m  23 35 56.999907 -02 38 21.27097
 2018-Dec-24 11:39  m  23 35 57.002039 -02 38 21.10504
 2018-Dec-24 11:40  m  23 35 57.004173 -02 38 20.93911
 2018-Dec-24 11:41  m  23 35 57.006308 -02 38 20.77318
 2018-Dec-24 11:42  m  23 35 57.008444 -02 38 20.60724
 2018-Dec-24 11:43  m  23 35 57.010582 -02 38 20.44131
 2018-Dec-24 11:44  m  23 35 57.012721 -02 38 20.27538
 2018-Dec-24 11:45  m  23 35 57.014862 -02 38 20.10944
 2018-Dec-24 11:46  m  23 35 57.017004 -02 38 19.94351
 2018-Dec-24 11:47  m  23 35 57.019147 -02 38 19.77757
 2018-Dec-24 11:48  m  23 35 57.021292 -02 38 19.61163
 2018-Dec-24 11:49  m  23 35 57.023438 -02 38 19.44570
 2018-Dec-24 11:50  m  23 35 57.025585 -02 38 19.27976
 2018-Dec-24 11:51  m  23 35 57.027734 -02 38 19.11382
 2018-Dec-24 11:52  m  23 35 57.029884 -02 38 18.94789
 2018-Dec-24 11:53  m  23 35 57.032036 -02 38 18.78195
 2018-Dec-24 11:54  m  23 35 57.034189 -02 38 18.61601
 2018-Dec-24 11:55  m  23 35 57.036343 -02 38 18.45007
 2018-Dec-24 11:56  m  23 35 57.038498 -02 38 18.28413
 2018-Dec-24 11:57  m  23 35 57.040655 -02 38 18.11819
 2018-Dec-24 11:58  m  23 35 57.042814 -02 38 17.95225
 2018-Dec-24 11:59  m  23 35 57.044973 -02 38 17.78631
 2018-Dec-24 12:00  m  23 35 57.047134 -02 38 17.62037
 2018-Dec-24 12:01  m  23 35 57.049297 -02 38 17.45442
 2018-Dec-24 12:02  m  23 35 57.051460 -02 38 17.28848
 2018-Dec-24 12:03  m  23 35 57.053625 -02 38 17.12254
 2018-Dec-24 12:04  m  23 35 57.055791 -02 38 16.95660
 2018-Dec-24 12:05  m  23 35 57.057959 -02 38 16.79065
 2018-Dec-24 12:06  m  23 35 57.060128 -02 38 16.62471
 2018-Dec-24 12:07  m  23 35 57.062298 -02 38 16.45876
 2018-Dec-24 12:08  m  23 35 57.064470 -02 38 16.29282
 2018-Dec-24 12:09  m  23 35 57.066643 -02 38 16.12687
 2018-Dec-24 12:10  m  23 35 57.068817 -02 38 15.96093
